start=new Date('2023-03-05T00:00:00.000Z').valueOf();
sats=[{"TLE_LINE2":"2 45766  53.0563 119.3784 0001892 114.7971 245.3215 15.06419478150514","REV_AT_EPOCH":"15051","CLASSIFICATION_TYPE":"U","INCLINATION":"53.0563","MEAN_ELEMENT_THEORY":"SGP4","OBJECT_NAME":"STARLINK-1509","ECCENTRICITY":"0.00018920","SITE":"AFETR","EPOCH":"2023-03-04T15:35:12.917184","GP_ID":"227506421","COUNTRY_CODE":"US","APOAPSIS":"548.464","LAUNCH_DATE":"2020-06-13","RA_OF_ASC_NODE":"119.3784","MEAN_MOTION":"15.06419478","FILE":"3851350","RCS_SIZE":"LARGE","ARG_OF_PERICENTER":"114.7971","MEAN_ANOMALY":"245.3215","DECAY_DATE":null,"EPHEMERIS_TYPE":"0","PERIOD":"95.591","PERIAPSIS":"545.844","TLE_LINE1":"1 45766U 20038AN  23063.64945506  .00011961  00000-0  82007-3 0  9992","NORAD_CAT_ID":"45766","MEAN_MOTION_DOT":"0.00011961","ELEMENT_SET_NO":"999","BSTAR":"0.00082007000000","OBJECT_ID":"2020-038AN","MEAN_MOTION_DDOT":"0.0000000000000","TIME_SYSTEM":"UTC","OBJECT_TYPE":"PAYLOAD","REF_FRAME":"TEME","SEMIMAJOR_AXIS":"6925.289","CENTER_NAME":"EARTH"},{"BSTAR":"-0.00059086000000","ELEMENT_SET_NO":"999","MEAN_MOTION_DDOT":"0.0000000000000","OBJECT_ID":"2020-038AP","OBJECT_TYPE":"PAYLOAD","TIME_SYSTEM":"UTC","SEMIMAJOR_AXIS":"6925.391","CENTER_NAME":"EARTH","REF_FRAME":"TEME","EPHEMERIS_TYPE":"0","DECAY_DATE":null,"PERIOD":"95.593","MEAN_ANOMALY":"242.2892","NORAD_CAT_ID":"45767","TLE_LINE1":"1 45767U 20038AP  23063.84112749 -.00009068  00000-0 -59086-3 0  9998","PERIAPSIS":"546.414","MEAN_MOTION_DOT":"-0.00009068","LAUNCH_DATE":"2020-06-13","APOAPSIS":"548.099","RA_OF_ASC_NODE":"118.5167","RCS_SIZE":"LARGE","ARG_OF_PERICENTER":"117.8220","FILE":"3851350","MEAN_MOTION":"15.06385998","INCLINATION":"53.0556","TLE_LINE2":"2 45767  53.0556 118.5167 0001216 117.8220 242.2892 15.06385998150543","REV_AT_EPOCH":"15054","CLASSIFICATION_TYPE":"U","MEAN_ELEMENT_THEORY":"SGP4","OBJECT_NAME":"STARLINK-1511","GP_ID":"227505183","COUNTRY_CODE":"US","ECCENTRICITY":"0.00012160","SITE":"AFETR","EPOCH":"2023-03-04T20:11:13.415136"},{"OBJECT_NAME":"STARLINK-1521","COUNTRY_CODE":"US","GP_ID":"227505432","EPOCH":"2023-03-04T14:58:03.785952","SITE":"AFETR","ECCENTRICITY":"0.00015090","INCLINATION":"53.0552","CLASSIFICATION_TYPE":"U","REV_AT_EPOCH":"15052","TLE_LINE2":"2 45768  53.0552 119.4918 0001509 111.5589 248.5561 15.06427525150521","MEAN_ELEMENT_THEORY":"SGP4","RA_OF_ASC_NODE":"119.4918","ARG_OF_PERICENTER":"111.5589","RCS_SIZE":"LARGE","FILE":"3851350","MEAN_MOTION":"15.06427525","LAUNCH_DATE":"2020-06-13","APOAPSIS":"548.174","NORAD_CAT_ID":"45768","PERIAPSIS":"546.084","TLE_LINE1":"1 45768U 20038AQ  23063.62365493  .00016909  00000-0  11505-2 0  9994","MEAN_MOTION_DOT":"0.00016909","DECAY_DATE":null,"PERIOD":"95.590","EPHEMERIS_TYPE":"0","MEAN_ANOMALY":"248.5561","OBJECT_TYPE":"PAYLOAD","TIME_SYSTEM":"UTC","CENTER_NAME":"EARTH","SEMIMAJOR_AXIS":"6925.264","REF_FRAME":"TEME","BSTAR":"0.00115050000000","ELEMENT_SET_NO":"999","MEAN_MOTION_DDOT":"0.0000000000000","OBJECT_ID":"2020-038AQ"},{"TIME_SYSTEM":"UTC","OBJECT_TYPE":"PAYLOAD","REF_FRAME":"TEME","CENTER_NAME":"EARTH","SEMIMAJOR_AXIS":"6925.302","ELEMENT_SET_NO":"999","BSTAR":"0.00234830000000","OBJECT_ID":"2020-038AR","MEAN_MOTION_DDOT":"0.0000000000000","PERIAPSIS":"546.039","TLE_LINE1":"1 45769U 20038AR  23063.58126803  .00034885  00000-0  23483-2 0  9991","NORAD_CAT_ID":"45769","MEAN_MOTION_DOT":"0.00034885","MEAN_ANOMALY":"269.9510","EPHEMERIS_TYPE":"0","DECAY_DATE":null,"PERIOD":"95.591","RA_OF_ASC_NODE":"139.6876","MEAN_MOTION":"15.06415125","FILE":"3851072","ARG_OF_PERICENTER":"90.1665","RCS_SIZE":"LARGE","APOAPSIS":"548.295","LAUNCH_DATE":"2020-06-13","OBJECT_NAME":"STARLINK-1459","EPOCH":"2023-03-04T13:57:01.557792","SITE":"AFETR","ECCENTRICITY":"0.00016290","COUNTRY_CODE":"US","GP_ID":"227472415","CLASSIFICATION_TYPE":"U","TLE_LINE2":"2 45769  53.0542 139.6876 0001629  90.1665 269.9510 15.06415125150230","REV_AT_EPOCH":"15023","INCLINATION":"53.0542","MEAN_ELEMENT_THEORY":"SGP4"},{"LAUNCH_DATE":"2020-06-13","APOAPSIS":"548.294","ARG_OF_PERICENTER":"111.4498","RCS_SIZE":"LARGE","FILE":"3851350","MEAN_MOTION":"15.06413064","RA_OF_ASC_NODE":"99.6700","MEAN_ELEMENT_THEORY":"SGP4","INCLINATION":"53.0533","CLASSIFICATION_TYPE":"U","TLE_LINE2":"2 45770  53.0533  99.6700 0001618 111.4498 248.6663 15.06413064150785","REV_AT_EPOCH":"15078","COUNTRY_CODE":"US","GP_ID":"227505922","EPOCH":"2023-03-04T14:00:58.323168","SITE":"AFETR","ECCENTRICITY":"0.00016180","OBJECT_NAME":"STARLINK-1462","MEAN_MOTION_DDOT":"0.0000000000000","OBJECT_ID":"2020-038AS","BSTAR":"0.00044816000000","ELEMENT_SET_NO":"999","CENTER_NAME":"EARTH","SEMIMAJOR_AXIS":"6925.309","REF_FRAME":"TEME","OBJECT_TYPE":"PAYLOAD","TIME_SYSTEM":"UTC","DECAY_DATE":null,"EPHEMERIS_TYPE":"0","PERIOD":"95.591","MEAN_ANOMALY":"248.6663","MEAN_MOTION_DOT":"0.00006402","NORAD_CAT_ID":"45770","PERIAPSIS":"546.053","TLE_LINE1":"1 45770U 20038AS  23063.58400837  .00006402  00000-0  44816-3 0  9993"},{"EPOCH":"2023-03-04T13:51:43.420032","SITE":"AFETR","ECCENTRICITY":"0.00009300","COUNTRY_CODE":"US","GP_ID":"227504686","OBJECT_NAME":"STARLINK-1463","MEAN_ELEMENT_THEORY":"SGP4","CLASSIFICATION_TYPE":"U","REV_AT_EPOCH":"15078","TLE_LINE2":"2 45771  53.0530  99.7019 0000930  84.8025 275.3070 15.06417135150784","INCLINATION":"53.0530","MEAN_MOTION":"15.06417135","FILE":"3851350","ARG_OF_PERICENTER":"84.8025","RCS_SIZE":"LARGE","RA_OF_ASC_NODE":"99.7019","APOAPSIS":"547.805","LAUNCH_DATE":"2020-06-13","MEAN_MOTION_DOT":"0.00037114","PERIAPSIS":"546.517","TLE_LINE1":"1 45771U 20038AT  23063.57758588  .00037114  00000-0  24963-2 0  9996","NORAD_CAT_ID":"45771","MEAN_ANOMALY":"275.3070","DECAY_DATE":null,"PERIOD":"95.591","EPHEMERIS_TYPE":"0","REF_FRAME":"TEME","CENTER_NAME":"EARTH","SEMIMAJOR_AXIS":"6925.296","TIME_SYSTEM":"UTC","OBJECT_TYPE":"PAYLOAD","OBJECT_ID":"2020-038AT","MEAN_MOTION_DDOT":"0.0000000000000","ELEMENT_SET_NO":"999","BSTAR":"0.00249630000000"},{"BSTAR":"0.00079997000000","ELEMENT_SET_NO":"999","MEAN_MOTION_DDOT":"0.0000000000000","OBJECT_ID":"2020-038AU","OBJECT_TYPE":"PAYLOAD","TIME_SYSTEM":"UTC","CENTER_NAME":"EARTH","SEMIMAJOR_AXIS":"6925.317","REF_FRAME":"TEME","PERIOD":"95.591","DECAY_DATE":null,"EPHEMERIS_TYPE":"0","MEAN_ANOMALY":"255.3174","NORAD_CAT_ID":"45772","TLE_LINE1":"1 45772U 20038AU  23063.83191403  .00011657  00000-0  79997-3 0  9995","PERIAPSIS":"546.159","MEAN_MOTION_DOT":"0.00011657","LAUNCH_DATE":"2020-06-13","APOAPSIS":"548.204","RA_OF_ASC_NODE":"98.5613","ARG_OF_PERICENTER":"104.7978","RCS_SIZE":"LARGE","FILE":"3851350","MEAN_MOTION":"15.06410455","INCLINATION":"53.0517","CLASSIFICATION_TYPE":"U","TLE_LINE2":"2 45772  53.0517  98.5613 0001476 104.7978 255.3174 15.06410455150839","REV_AT_EPOCH":"15083","MEAN_ELEMENT_THEORY":"SGP4","OBJECT_NAME":"STARLINK-1470","COUNTRY_CODE":"US","GP_ID":"227504934","EPOCH":"2023-03-04T19:57:57.372192","SITE":"AFETR","ECCENTRICITY":"0.00014760"},{"BSTAR":"0.00141380000000","ELEMENT_SET_NO":"999","MEAN_MOTION_DDOT":"0.0000000000000","OBJECT_ID":"2020-038AV","OBJECT_TYPE":"PAYLOAD","TIME_SYSTEM":"UTC","CENTER_NAME":"EARTH","SEMIMAJOR_AXIS":"6925.351","REF_FRAME":"TEME","DECAY_DATE":null,"PERIOD":"95.592","EPHEMERIS_TYPE":"0","MEAN_ANOMALY":"282.0542","NORAD_CAT_ID":"45773","PERIAPSIS":"545.786","TLE_LINE1":"1 45773U 20038AV  23063.82454598  .00020839  00000-0  14138-2 0  9999","MEAN_MOTION_DOT":"0.00020839","LAUNCH_DATE":"2020-06-13","APOAPSIS":"548.647","RA_OF_ASC_NODE":"98.5929","ARG_OF_PERICENTER":"78.0679","RCS_SIZE":"LARGE","FILE":"3851350","MEAN_MOTION":"15.06399051","INCLINATION":"53.0530","CLASSIFICATION_TYPE":"U","REV_AT_EPOCH":"15083","TLE_LINE2":"2 45773  53.0530  98.5929 0002065  78.0679 282.0542 15.06399051150835","MEAN_ELEMENT_THEORY":"SGP4","OBJECT_NAME":"STARLINK-1482","COUNTRY_CODE":"US","GP_ID":"227505685","EPOCH":"2023-03-04T19:47:20.772672","ECCENTRICITY":"0.00020650","SITE":"AFETR"},{"OBJECT_ID":"2020-038AW","MEAN_MOTION_DDOT":"0.0000000000000","ELEMENT_SET_NO":"999","BSTAR":"0.00009652800000","REF_FRAME":"TEME","CENTER_NAME":"EARTH","SEMIMAJOR_AXIS":"6925.391","TIME_SYSTEM":"UTC","OBJECT_TYPE":"PAYLOAD","MEAN_ANOMALY":"275.8736","DECAY_DATE":null,"EPHEMERIS_TYPE":"0","PERIOD":"95.593","MEAN_MOTION_DOT":"0.00001156","TLE_LINE1":"1 45774U 20038AW  23063.79505723  .00001156  00000-0  96528-4 0  9999","PERIAPSIS":"545.776","NORAD_CAT_ID":"45774","APOAPSIS":"548.736","LAUNCH_DATE":"2020-06-13","FILE":"3851350","MEAN_MOTION":"15.06386247","ARG_OF_PERICENTER":"84.2496","RCS_SIZE":"LARGE","RA_OF_ASC_NODE":"98.7228","MEAN_ELEMENT_THEORY":"SGP4","CLASSIFICATION_TYPE":"U","TLE_LINE2":"2 45774  53.0538  98.7228 0002137  84.2496 275.8736 15.06386247150821","REV_AT_EPOCH":"15082","INCLINATION":"53.0538","EPOCH":"2023-03-04T19:04:52.944672","ECCENTRICITY":"0.00021370","SITE":"AFETR","COUNTRY_CODE":"US","GP_ID":"227506422","OBJECT_NAME":"STARLINK-1485"},{"OBJECT_ID":"2020-038AX","MEAN_MOTION_DDOT":"0.0000000000000","ELEMENT_SET_NO":"999","BSTAR":"0.00253260000000","REF_FRAME":"TEME","SEMIMAJOR_AXIS":"6904.951","CENTER_NAME":"EARTH","TIME_SYSTEM":"UTC","OBJECT_TYPE":"PAYLOAD","MEAN_ANOMALY":"304.8747","PERIOD":"95.170","DECAY_DATE":null,"EPHEMERIS_TYPE":"0","MEAN_MOTION_DOT":"0.00045322","TLE_LINE1":"1 45775U 20038AX  23063.81613450  .00045322  00000-0  25326-2 0  9999","PERIAPSIS":"524.528","NORAD_CAT_ID":"45775","APOAPSIS":"529.104","LAUNCH_DATE":"2020-06-13","MEAN_MOTION":"15.13079914","FILE":"3851350","RCS_SIZE":"LARGE","ARG_OF_PERICENTER":"55.2556","RA_OF_ASC_NODE":"96.0381","MEAN_ELEMENT_THEORY":"SGP4","TLE_LINE2":"2 45775  53.0525  96.0381 0003313  55.2556 304.8747 15.13079914150879","REV_AT_EPOCH":"15087","CLASSIFICATION_TYPE":"U","INCLINATION":"53.0525","SITE":"AFETR","ECCENTRICITY":"0.00033130","EPOCH":"2023-03-04T19:35:14.020800","GP_ID":"227505184","COUNTRY_CODE":"US","OBJECT_NAME":"STARLINK-1488"}];
